{
  "norad_id": 59397,
  "name": "STARLINK-31608",
  "history": [
    {
      "epoch": "2026-03-28T14:29:56.501952",
      "apogee_km": 476.2417558628731,
      "perigee_km": 474.2433103910125,
      "latitude_deg": 39.30643784275911,
      "longitude_deg": 177.69611327978782,
      "semi_major_axis_km": 6853.379533126942,
      "eccentricity": 0.0001458,
      "inclination_deg": 53.161,
      "raan_deg": 168.06,
      "arg_perigee_deg": 114.1734,
      "mean_anomaly_deg": 245.9419,
      "mean_motion_rev_day": 15.30190802
    }
  ]
}